NAVSTAR 43 (USA 132)    
1 24876U 97035A   26167.20443871 -.00000012  00000+0  00000+0 0  9994
2 24876  55.9944  98.6138 0102442  56.9091 304.0464  2.00563771211931
